ONEWEB-0395             
1 50475U 21132G   25204.63312785 -.00000335  00000+0 -97982-3 0  9998
2 50475  87.8815  86.5721 0001491  75.2703 284.8590 13.11416447172657
ONEWEB-0396             
1 50476U 21132H   25204.62185176 -.00000027  00000+0 -10154-3 0  9994
2 50476  87.9121  40.7227 0001728  90.9946 269.1384 13.18688387178337
ONEWEB-0397             
1 50477U 21132J   25204.56082546  .00000025  00000+0  30367-4 0  9990
2 50477  87.9122  40.7360 0001897  93.3464 266.7885 13.18685386178308
ONEWEB-0398             
1 50478U 21132K   25204.60092703  .00000103  00000+0  25351-3 0  9995
2 50478  87.8808  86.5417 0001685  64.7731 295.3572 13.11414134172549
ONEWEB-0399             
1 50479U 21132L   25204.58736955  .00000518  00000+0  14258-2 0  9990
2 50479  87.8813  86.5683 0001784  89.5703 270.5630 13.11416175172531
ONEWEB-0400             
1 50480U 21132M   25204.53939634 -.00000007  00000+0 -50425-4 0  9999
2 50480  87.9119  40.7307 0001711  80.9694 279.1632 13.18684171178298
ONEWEB-0401             
1 50481U 21132N   25204.58393107  .00000041  00000+0  72127-4 0  9993
2 50481  87.9122  40.7173 0002004  91.7552 268.3810 13.18686538178302
ONEWEB-0402             
1 50482U 21132P   25204.54764298  .00000011  00000+0 -40680-5 0  9991
2 50482  87.9121  40.7185 0002327  96.6315 263.5082 13.18685262178327
